[{"COMMENT":"GENERATED VIA SPACETRACK.ORG API","ORIGINATOR":"18 SPCS","NORAD_CAT_ID":"43476","OBJECT_NAME":"GRACE-FO 1","OBJECT_TYPE":"PAYLOAD","CLASSIFICATION_TYPE":"U","INTLDES":"18047A","EPOCH":"2023-10-24 14:41:22","EPOCH_MICROSECONDS":"971552","MEAN_MOTION":"15.27144593","ECCENTRICITY":"0.0010721","INCLINATION":"88.9848","RA_OF_ASC_NODE":"331.5862","ARG_OF_PERICENTER":"256.5234","MEAN_ANOMALY":"103.4821","EPHEMERIS_TYPE":"0","ELEMENT_SET_NO":"999","REV_AT_EPOCH":"30174","BSTAR":"0.00012","MEAN_MOTION_DOT":"0.00003225","MEAN_MOTION_DDOT":"0","FILE":"4051589","TLE_LINE0":"0 GRACE-FO 1","TLE_LINE1":"1 43476U 18047A   23297.61207143  .00003225  00000-0  12000-3 0  9999","TLE_LINE2":"2 43476  88.9848 331.5862 0010721 256.5234 103.4821 15.27144593301742","OBJECT_ID":"2018-047A","OBJECT_NUMBER":"43476","SEMIMAJOR_AXIS":"6862.490","PERIOD":"94.294","APOGEE":"491.712","PERIGEE":"476.998","DECAYED":"0"},{"COMMENT":"GENERATED VIA SPACETRACK.ORG API","ORIGINATOR":"18 SPCS","NORAD_CAT_ID":"43476","OBJECT_NAME":"GRACE-FO 1","OBJECT_TYPE":"PAYLOAD","CLASSIFICATION_TYPE":"U","INTLDES":"18047A","EPOCH":"2023-10-25 14:16:46","EPOCH_MICROSECONDS":"513920","MEAN_MOTION":"15.27150549","ECCENTRICITY":"0.0010765","INCLINATION":"88.9846","RA_OF_ASC_NODE":"331.452","ARG_OF_PERICENTER":"251.7246","MEAN_ANOMALY":"108.2833","EPHEMERIS_TYPE":"0","ELEMENT_SET_NO":"999","REV_AT_EPOCH":"30189","BSTAR":"0.00011207","MEAN_MOTION_DOT":"0.00003015","MEAN_MOTION_DDOT":"0","FILE":"4051838","TLE_LINE0":"0 GRACE-FO 1","TLE_LINE1":"1 43476U 18047A   23298.59498280  .00003015  00000-0  11207-3 0  9996","TLE_LINE2":"2 43476  88.9846 331.4520 0010765 251.7246 108.2833 15.27150549301898","OBJECT_ID":"2018-047A","OBJECT_NUMBER":"43476","SEMIMAJOR_AXIS":"6862.472","PERIOD":"94.293","APOGEE":"491.725","PERIGEE":"476.950","DECAYED":"0"},{"COMMENT":"GENERATED VIA SPACETRACK.ORG API","ORIGINATOR":"18 SPCS","NORAD_CAT_ID":"43476","OBJECT_NAME":"GRACE-FO 1","OBJECT_TYPE":"PAYLOAD","CLASSIFICATION_TYPE":"U","INTLDES":"18047A","EPOCH":"2023-10-25 14:16:46","EPOCH_MICROSECONDS":"513920","MEAN_MOTION":"15.27150549","ECCENTRICITY":"0.0010765","INCLINATION":"88.9846","RA_OF_ASC_NODE":"331.452","ARG_OF_PERICENTER":"251.7246","MEAN_ANOMALY":"108.2833","EPHEMERIS_TYPE":"0","ELEMENT_SET_NO":"999","REV_AT_EPOCH":"30189","BSTAR":"0.00011207","MEAN_MOTION_DOT":"0.00003015","MEAN_MOTION_DDOT":"0","FILE":"4052988","TLE_LINE0":"0 GRACE-FO 1","TLE_LINE1":"1 43476U 18047A   23298.59498280  .00003015  00000-0  11207-3 0  9996","TLE_LINE2":"2 43476  88.9846 331.4520 0010765 251.7246 108.2833 15.27150549301898","OBJECT_ID":"2018-047A","OBJECT_NUMBER":"43476","SEMIMAJOR_AXIS":"6862.472","PERIOD":"94.293","APOGEE":"491.725","PERIGEE":"476.950","DECAYED":"0"},{"COMMENT":"GENERATED VIA SPACETRACK.ORG API","ORIGINATOR":"18 SPCS","NORAD_CAT_ID":"43476","OBJECT_NAME":"GRACE-FO 1","OBJECT_TYPE":"PAYLOAD","CLASSIFICATION_TYPE":"U","INTLDES":"18047A","EPOCH":"2023-10-26 13:52:09","EPOCH_MICROSECONDS":"704640","MEAN_MOTION":"15.27157897","ECCENTRICITY":"0.0010826","INCLINATION":"88.9843","RA_OF_ASC_NODE":"331.3179","ARG_OF_PERICENTER":"246.983","MEAN_ANOMALY":"113.0278","EPHEMERIS_TYPE":"0","ELEMENT_SET_NO":"999","REV_AT_EPOCH":"30204","BSTAR":"0.00012624","MEAN_MOTION_DOT":"0.00003393","MEAN_MOTION_DDOT":"0","FILE":"4054082","TLE_LINE0":"0 GRACE-FO 1","TLE_LINE1":"1 43476U 18047A   23299.57789010  .00003393  00000-0  12624-3 0  9992","TLE_LINE2":"2 43476  88.9843 331.3179 0010826 246.9830 113.0278 15.27157897302045","OBJECT_ID":"2018-047A","OBJECT_NUMBER":"43476","SEMIMAJOR_AXIS":"6862.450","PERIOD":"94.293","APOGEE":"491.745","PERIGEE":"476.886","DECAYED":"0"},{"COMMENT":"GENERATED VIA SPACETRACK.ORG API","ORIGINATOR":"18 SPCS","NORAD_CAT_ID":"43476","OBJECT_NAME":"GRACE-FO 1","OBJECT_TYPE":"PAYLOAD","CLASSIFICATION_TYPE":"U","INTLDES":"18047A","EPOCH":"2023-10-26 18:35:14","EPOCH_MICROSECONDS":"303040","MEAN_MOTION":"15.27159195","ECCENTRICITY":"0.001084","INCLINATION":"88.9842","RA_OF_ASC_NODE":"331.2911","ARG_OF_PERICENTER":"246.0206","MEAN_ANOMALY":"113.9908","EPHEMERIS_TYPE":"0","ELEMENT_SET_NO":"999","REV_AT_EPOCH":"30207","BSTAR":"0.00012755","MEAN_MOTION_DOT":"0.00003428","MEAN_MOTION_DDOT":"0","FILE":"4054168","TLE_LINE0":"0 GRACE-FO 1","TLE_LINE1":"1 43476U 18047A   23299.77447110  .00003428  00000-0  12755-3 0  9990","TLE_LINE2":"2 43476  88.9842 331.2911 0010840 246.0206 113.9908 15.27159195302076","OBJECT_ID":"2018-047A","OBJECT_NUMBER":"43476","SEMIMAJOR_AXIS":"6862.446","PERIOD":"94.293","APOGEE":"491.750","PERIGEE":"476.873","DECAYED":"0"},{"COMMENT":"GENERATED VIA SPACETRACK.ORG API","ORIGINATOR":"18 SPCS","NORAD_CAT_ID":"43476","OBJECT_NAME":"GRACE-FO 1","OBJECT_TYPE":"PAYLOAD","CLASSIFICATION_TYPE":"U","INTLDES":"18047A","EPOCH":"2023-10-26 20:09:35","EPOCH_MICROSECONDS":"806464","MEAN_MOTION":"15.27160265","ECCENTRICITY":"0.0010847","INCLINATION":"88.9842","RA_OF_ASC_NODE":"331.2821","ARG_OF_PERICENTER":"245.7037","MEAN_ANOMALY":"114.308","EPHEMERIS_TYPE":"0","ELEMENT_SET_NO":"999","REV_AT_EPOCH":"30208","BSTAR":"0.00013285","MEAN_MOTION_DOT":"0.00003569","MEAN_MOTION_DDOT":"0","FILE":"4054421","TLE_LINE0":"0 GRACE-FO 1","TLE_LINE1":"1 43476U 18047A   23299.83999776  .00003569  00000-0  13285-3 0  9992","TLE_LINE2":"2 43476  88.9842 331.2821 0010847 245.7037 114.3080 15.27160265302088","OBJECT_ID":"2018-047A","OBJECT_NUMBER":"43476","SEMIMAJOR_AXIS":"6862.443","PERIOD":"94.293","APOGEE":"491.752","PERIGEE":"476.865","DECAYED":"0"},{"COMMENT":"GENERATED VIA SPACETRACK.ORG API","ORIGINATOR":"18 SPCS","NORAD_CAT_ID":"43476","OBJECT_NAME":"GRACE-FO 1","OBJECT_TYPE":"PAYLOAD","CLASSIFICATION_TYPE":"U","INTLDES":"18047A","EPOCH":"2023-10-27 13:27:32","EPOCH_MICROSECONDS":"509152","MEAN_MOTION":"15.27165957","ECCENTRICITY":"0.0010907","INCLINATION":"88.9839","RA_OF_ASC_NODE":"331.1838","ARG_OF_PERICENTER":"242.1788","MEAN_ANOMALY":"117.8356","EPHEMERIS_TYPE":"0","ELEMENT_SET_NO":"999","REV_AT_EPOCH":"30219","BSTAR":"0.00015013","MEAN_MOTION_DOT":"0.0000403","MEAN_MOTION_DDOT":"0","FILE":"4055819","TLE_LINE0":"0 GRACE-FO 1","TLE_LINE1":"1 43476U 18047A   23300.56079293  .00004030  00000-0  15013-3 0  9993","TLE_LINE2":"2 43476  88.9839 331.1838 0010907 242.1788 117.8356 15.27165957302191","OBJECT_ID":"2018-047A","OBJECT_NUMBER":"43476","SEMIMAJOR_AXIS":"6862.426","PERIOD":"94.292","APOGEE":"491.776","PERIGEE":"476.806","DECAYED":"0"},{"COMMENT":"GENERATED VIA SPACETRACK.ORG API","ORIGINATOR":"18 SPCS","NORAD_CAT_ID":"43476","OBJECT_NAME":"GRACE-FO 1","OBJECT_TYPE":"PAYLOAD","CLASSIFICATION_TYPE":"U","INTLDES":"18047A","EPOCH":"2023-10-27 19:44:58","EPOCH_MICROSECONDS":"503840","MEAN_MOTION":"15.27168202","ECCENTRICITY":"0.0010932","INCLINATION":"88.9838","RA_OF_ASC_NODE":"331.148","ARG_OF_PERICENTER":"240.9281","MEAN_ANOMALY":"119.0874","EPHEMERIS_TYPE":"0","ELEMENT_SET_NO":"999","REV_AT_EPOCH":"30223","BSTAR":"0.00015267","MEAN_MOTION_DOT":"0.00004098","MEAN_MOTION_DDOT":"0","FILE":"4055931","TLE_LINE0":"0 GRACE-FO 1","TLE_LINE1":"1 43476U 18047A   23300.82289935  .00004098  00000-0  15267-3 0  9993","TLE_LINE2":"2 43476  88.9838 331.1480 0010932 240.9281 119.0874 15.27168202302235","OBJECT_ID":"2018-047A","OBJECT_NUMBER":"43476","SEMIMAJOR_AXIS":"6862.419","PERIOD":"94.292","APOGEE":"491.786","PERIGEE":"476.782","DECAYED":"0"},{"COMMENT":"GENERATED VIA SPACETRACK.ORG API","ORIGINATOR":"18 SPCS","NORAD_CAT_ID":"43476","OBJECT_NAME":"GRACE-FO 1","OBJECT_TYPE":"PAYLOAD","CLASSIFICATION_TYPE":"U","INTLDES":"18047A","EPOCH":"2023-10-27 19:44:58","EPOCH_MICROSECONDS":"503840","MEAN_MOTION":"15.27168202","ECCENTRICITY":"0.0010932","INCLINATION":"88.9838","RA_OF_ASC_NODE":"331.148","ARG_OF_PERICENTER":"240.9281","MEAN_ANOMALY":"119.0874","EPHEMERIS_TYPE":"0","ELEMENT_SET_NO":"999","REV_AT_EPOCH":"30223","BSTAR":"0.00015267","MEAN_MOTION_DOT":"0.00004098","MEAN_MOTION_DDOT":"0","FILE":"4056385","TLE_LINE0":"0 GRACE-FO 1","TLE_LINE1":"1 43476U 18047A   23300.82289935  .00004098  00000-0  15267-3 0  9993","TLE_LINE2":"2 43476  88.9838 331.1480 0010932 240.9281 119.0874 15.27168202302235","OBJECT_ID":"2018-047A","OBJECT_NUMBER":"43476","SEMIMAJOR_AXIS":"6862.419","PERIOD":"94.292","APOGEE":"491.786","PERIGEE":"476.782","DECAYED":"0"},{"COMMENT":"GENERATED VIA SPACETRACK.ORG API","ORIGINATOR":"18 SPCS","NORAD_CAT_ID":"43476","OBJECT_NAME":"GRACE-FO 1","OBJECT_TYPE":"PAYLOAD","CLASSIFICATION_TYPE":"U","INTLDES":"18047A","EPOCH":"2023-10-28 13:02:54","EPOCH_MICROSECONDS":"831552","MEAN_MOTION":"15.27174527","ECCENTRICITY":"0.0011012","INCLINATION":"88.9835","RA_OF_ASC_NODE":"331.0495","ARG_OF_PERICENTER":"237.5086","MEAN_ANOMALY":"122.5099","EPHEMERIS_TYPE":"0","ELEMENT_SET_NO":"999","REV_AT_EPOCH":"30234","BSTAR":"0.00015546","MEAN_MOTION_DOT":"0.00004173","MEAN_MOTION_DDOT":"0","FILE":"4057688","TLE_LINE0":"0 GRACE-FO 1","TLE_LINE1":"1 43476U 18047A   23301.54369018  .00004173  00000-0  15546-3 0  9998","TLE_LINE2":"2 43476  88.9835 331.0495 0011012 237.5086 122.5099 15.27174527302349","OBJECT_ID":"2018-047A","OBJECT_NUMBER":"43476","SEMIMAJOR_AXIS":"6862.400","PERIOD":"94.292","APOGEE":"491.822","PERIGEE":"476.709","DECAYED":"0"}]